OBJECT_NAME,OBJECT_ID,EPOCH,MEAN_MOTION,ECCENTRICITY,INCLINATION,RA_OF_ASC_NODE,ARG_OF_PERICENTER,MEAN_ANOMALY,EPHEMERIS_TYPE,CLASSIFICATION_TYPE,NORAD_CAT_ID,ELEMENT_SET_NO,REV_AT_EPOCH,BSTAR,MEAN_MOTION_DOT,MEAN_MOTION_DDOT
IRIDIUM 138,2017-083B,2026-06-17T19:18:59.135904,14.34217899,.0002317,86.3979,321.4525,87.1272,273.0189,0,U,43071,999,44422,.33267E-4,.113E-5,0
IRIDIUM 116,2017-083C,2026-06-17T11:51:27.113184,14.34217678,.00018782,86.3959,321.8731,99.3926,260.7482,0,U,43072,999,44421,-.2827643E-5,.12E-6,0
IRIDIUM 130,2017-083D,2026-06-17T19:28:06.892032,14.34218955,.0001941,86.3971,322.0155,92.8863,267.2555,0,U,43073,999,44420,.4028E-4,.133E-5,0
IRIDIUM 151,2017-083E,2026-06-17T18:51:35.212608,14.34217322,.0002052,86.3962,321.8089,93.2804,266.8627,0,U,43074,999,44422,-.10034E-4,-.8E-7,0
IRIDIUM 134,2017-083F,2026-06-17T11:24:03.195072,14.34217125,.00019978,86.3962,321.9468,91.6063,268.5362,0,U,43075,999,44414,-.23802623E-4,-.47E-6,0
IRIDIUM 137,2017-083G,2026-06-17T11:42:19.152288,14.34217665,.00021658,86.3965,322.0344,104.4329,255.7107,0,U,43076,999,44421,-.206873E-5,.14E-6,0
IRIDIUM 141,2017-083H,2026-06-17T11:33:11.134368,14.34217849,.00022328,86.3963,321.8674,91.1630,268.9822,0,U,43077,999,44421,.2520451E-5,.27E-6,0
IRIDIUM 153,2017-083J,2026-06-17T18:46:39.459360,14.34217611,.0002245,86.3961,290.2219,89.7741,270.3712,0,U,43078,999,44536,.2755E-5,.27E-6,0
IRIDIUM 131,2017-083K,2026-06-17T19:37:15.068928,14.34217293,.0002199,86.3969,321.9127,91.5331,268.6117,0,U,43079,999,44419,.22748E-4,.83E-6,0
IRIDIUM 144,2018-030A,2026-06-17T18:55:47.391744,14.34217096,.0002107,86.3959,290.1481,97.4059,262.7376,0,U,43249,999,43022,.51191E-4,.163E-5,0
IRIDIUM 149,2018-030B,2026-06-17T19:04:55.470144,14.34217580,.0002261,86.3957,290.1126,93.5731,266.5723,0,U,43250,999,43024,.72209E-5,.4E-6,0
IRIDIUM 157,2018-030C,2026-06-17T19:32:19.474656,14.34217218,.0002098,86.3956,290.1581,93.9165,266.2271,0,U,43251,999,43022,-.16129E-4,-.25E-6,0
IRIDIUM 140,2018-030D,2026-06-17T18:19:15.447072,14.34217407,.0002033,86.3955,290.1918,94.0565,266.0863,0,U,43252,999,43027,-.55579E-5,.4E-7,0
IRIDIUM 145,2018-030E,2026-06-17T19:41:27.433824,14.34217450,.0002018,86.3960,290.1400,101.2807,258.8616,0,U,43253,999,43021,.3958E-5,.31E-6,0
IRIDIUM 146,2018-030F,2026-06-17T19:14:03.204672,14.34219035,.0002122,86.3959,290.1602,96.8965,263.2473,0,U,43254,999,43022,.48054E-4,.154E-5,0
IRIDIUM 148,2018-030G,2026-06-17T18:28:23.471040,14.34217503,.0002158,86.3958,290.2169,96.3229,263.8213,0,U,43255,999,43025,-.35276E-5,.1E-6,0
IRIDIUM 142,2018-030H,2026-06-17T19:23:11.454144,14.34217290,.0002009,86.3953,290.0898,99.3009,260.8414,0,U,43256,999,43022,-.31598E-5,.11E-6,0
IRIDIUM 150,2018-030J,2026-06-17T18:37:31.429344,14.34217735,.0002151,86.3960,290.2193,93.8870,266.2572,0,U,43257,999,43024,.89229E-5,.45E-6,0
IRIDIUM 143,2018-030K,2026-06-17T18:10:07.438656,14.34217286,.0001988,86.3960,290.3200,96.8789,263.2633,0,U,43258,999,43017,-.6481E-5,.2E-7,0
IRIDIUM 161,2018-047C,2026-06-17T19:01:52.851648,14.43278798,.0002587,86.4482,88.2177,84.3272,275.8223,0,U,43478,999,42522,.71451E-4,.261E-5,0
IRIDIUM 152,2018-047D,2026-06-17T19:11:18.356928,14.34217245,.0002342,86.3957,88.0763,82.7587,277.3875,0,U,43479,999,42257,.53927E-4,.171E-5,0
IRIDIUM 147,2018-047E,2026-06-17T19:20:26.289312,14.34217486,.0002031,86.3959,88.0788,85.6999,274.4428,0,U,43480,999,42257,-.25781E-5,.13E-6,0
IRIDIUM 110,2018-047F,2026-06-17T19:29:34.385856,14.34217514,.000256,86.3960,88.1680,81.6903,278.4583,0,U,43481,999,42256,.36402E-4,.122E-5,0
IRIDIUM 162,2018-047G,2026-06-17T18:52:49.027584,14.43281937,.0002262,86.4481,88.1117,82.3396,277.8062,0,U,43482,999,42521,.7382E-4,.268E-5,0
IRIDIUM 160,2018-061A,2026-06-17T18:11:34.485792,14.34217814,.0002274,86.3962,56.5589,85.8180,274.3276,0,U,43569,999,41345,.60292E-5,.37E-6,0
IRIDIUM 166,2018-061B,2026-06-17T15:27:10.482912,14.34217509,.0002007,86.3959,56.5568,86.5849,273.5577,0,U,43570,999,41346,-.52179E-5,.5E-7,0
IRIDIUM 158,2018-061C,2026-06-17T18:02:26.454048,14.34217345,.0002093,86.3959,56.5217,82.3493,277.7941,0,U,43571,999,41344,-.12074E-4,-.14E-6,0
IRIDIUM 165,2018-061D,2026-06-17T15:18:02.440800,14.34217466,.0002062,86.3962,56.6160,86.9016,273.2416,0,U,43572,999,41345,.1856E-4,.72E-6,0
IRIDIUM 155,2018-061E,2026-06-17T17:44:10.483008,14.34217689,.0002111,86.3958,56.4426,82.7931,277.3505,0,U,43573,999,41343,.61247E-5,.37E-6,0
IRIDIUM 154,2018-061F,2026-06-17T17:16:46.328160,14.34216577,.0002126,86.3961,56.5840,87.3993,272.7446,0,U,43574,999,41348,.30607E-4,.105E-5,0
IRIDIUM 163,2018-061G,2026-06-17T18:29:50.277120,14.34216408,.0002237,86.3959,56.4782,83.5295,276.6155,0,U,43575,999,41346,.67658E-5,.39E-6,0
