IRIDIUM 138             
1 43071U 17083B   26168.80485111  .00000113  00000+0  33267-4 0  9994
2 43071  86.3979 321.4525 0002317  87.1272 273.0189 14.34217899444225
IRIDIUM 116             
1 43072U 17083C   26168.49406381  .00000012  00000+0 -28276-5 0  9996
2 43072  86.3959 321.8731 0001878  99.3926 260.7482 14.34217678444212
IRIDIUM 130             
1 43073U 17083D   26168.81119088  .00000133  00000+0  40280-4 0  9999
2 43073  86.3971 322.0155 0001941  92.8863 267.2555 14.34218955444200
IRIDIUM 151             
1 43074U 17083E   26168.78582422 -.00000008  00000+0 -10034-4 0  9999
2 43074  86.3962 321.8089 0002052  93.2804 266.8627 14.34217322444222
IRIDIUM 134             
1 43075U 17083F   26168.47503698 -.00000047  00000+0 -23803-4 0  9995
2 43075  86.3962 321.9468 0001997  91.6063 268.5362 14.34217125444148
IRIDIUM 137             
1 43076U 17083G   26168.48772167  .00000014  00000+0 -20687-5 0  9997
2 43076  86.3965 322.0344 0002165 104.4329 255.7107 14.34217665444215
IRIDIUM 141             
1 43077U 17083H   26168.48137887  .00000027  00000+0  25205-5 0  9996
2 43077  86.3963 321.8674 0002232  91.1630 268.9822 14.34217849444213
IRIDIUM 153             
1 43078U 17083J   26168.78240115  .00000027  00000+0  27550-5 0  9994
2 43078  86.3961 290.2219 0002245  89.7741 270.3712 14.34217611445365
IRIDIUM 131             
1 43079U 17083K   26168.81753552  .00000083  00000+0  22748-4 0  9998
2 43079  86.3969 321.9127 0002199  91.5331 268.6117 14.34217293444193
IRIDIUM 144             
1 43249U 18030A   26168.78874296  .00000163  00000+0  51191-4 0  9998
2 43249  86.3959 290.1481 0002107  97.4059 262.7376 14.34217096430224
IRIDIUM 149             
1 43250U 18030B   26168.79508646  .00000040  00000+0  72209-5 0  9992
2 43250  86.3957 290.1126 0002261  93.5731 266.5723 14.34217580430243
IRIDIUM 157             
1 43251U 18030C   26168.81411429 -.00000025  00000+0 -16129-4 0  9991
2 43251  86.3956 290.1581 0002098  93.9165 266.2271 14.34217218430222
IRIDIUM 140             
1 43252U 18030D   26168.76337323  .00000004  00000+0 -55579-5 0  9995
2 43252  86.3955 290.1918 0002033  94.0565 266.0863 14.34217407430271
IRIDIUM 145             
1 43253U 18030E   26168.82045641  .00000031  00000+0  39580-5 0  9995
2 43253  86.3960 290.1400 0002018 101.2807 258.8616 14.34217450430214
IRIDIUM 146             
1 43254U 18030F   26168.80142598  .00000154  00000+0  48054-4 0  9994
2 43254  86.3959 290.1602 0002122  96.8965 263.2473 14.34219035430220
IRIDIUM 148             
1 43255U 18030G   26168.76971610  .00000010  00000+0 -35276-5 0  9990
2 43255  86.3958 290.2169 0002158  96.3229 263.8213 14.34217503430255
IRIDIUM 142             
1 43256U 18030H   26168.80777146  .00000011  00000+0 -31598-5 0  9998
2 43256  86.3953 290.0898 0002009  99.3009 260.8414 14.34217290430222
IRIDIUM 150             
1 43257U 18030J   26168.77605821  .00000045  00000+0  89229-5 0  9995
2 43257  86.3960 290.2193 0002151  93.8870 266.2572 14.34217735430245
IRIDIUM 143             
1 43258U 18030K   26168.75703054  .00000002  00000+0 -64810-5 0  9994
2 43258  86.3960 290.3200 0001988  96.8789 263.2633 14.34217286430173
IRIDIUM 161             
1 43478U 18047C   26168.79297282  .00000261  00000+0  71451-4 0  9995
2 43478  86.4482  88.2177 0002587  84.3272 275.8223 14.43278798425228
IRIDIUM 152             
1 43479U 18047D   26168.79951802  .00000171  00000+0  53927-4 0  9999
2 43479  86.3957  88.0763 0002342  82.7587 277.3875 14.34217245422579
IRIDIUM 147             
1 43480U 18047E   26168.80585983  .00000013  00000+0 -25781-5 0  9990
2 43480  86.3959  88.0788 0002031  85.6999 274.4428 14.34217486422573
IRIDIUM 110             
1 43481U 18047F   26168.81220354  .00000122  00000+0  36402-4 0  9991
2 43481  86.3960  88.1680 0002560  81.6903 278.4583 14.34217514422563
IRIDIUM 162             
1 43482U 18047G   26168.78667856  .00000268  00000+0  73820-4 0  9996
2 43482  86.4481  88.1117 0002262  82.3396 277.8062 14.43281937425211
IRIDIUM 160             
1 43569U 18061A   26168.75803803  .00000037  00000+0  60292-5 0  9993
2 43569  86.3962  56.5589 0002274  85.8180 274.3276 14.34217814413459
IRIDIUM 166             
1 43570U 18061B   26168.64387133  .00000005  00000+0 -52179-5 0  9997
2 43570  86.3959  56.5568 0002007  86.5849 273.5577 14.34217509413465
IRIDIUM 158             
1 43571U 18061C   26168.75169507 -.00000014  00000+0 -12074-4 0  9993
2 43571  86.3959  56.5217 0002093  82.3493 277.7941 14.34217345413448
IRIDIUM 165             
1 43572U 18061D   26168.63752825  .00000072  00000+0  18560-4 0  9990
2 43572  86.3962  56.6160 0002062  86.9016 273.2416 14.34217466413451
IRIDIUM 155             
1 43573U 18061E   26168.73901022  .00000037  00000+0  61247-5 0  9999
2 43573  86.3958  56.4426 0002111  82.7931 277.3505 14.34217689413434
IRIDIUM 154             
1 43574U 18061F   26168.71998065  .00000105  00000+0  30607-4 0  9992
2 43574  86.3961  56.5840 0002126  87.3993 272.7446 14.34216577413488
IRIDIUM 163             
1 43575U 18061G   26168.77072080  .00000039  00000+0  67658-5 0  9992
2 43575  86.3959  56.4782 0002237  83.5295 276.6155 14.34216408413467
